IRIDIUM 26              
1 24903U 97043A   25087.62610876  .00000921  00000+0  30398-3 0  9996
2 24903  86.3979 144.4646 0002288  88.3545 271.7914 14.37056654445177
IRIDIUM 22              
1 24907U 97043E   25087.76842875  .00000852  00000+0  28746-3 0  9998
2 24907  86.3991 147.8712 0002242  93.9936 266.1517 14.35881126445234
DUMMY MASS 1            
1 24925U 97048A   25088.19995219  .00001065  00000+0  11614-3 0  9995
2 24925  86.3410 172.2918 0008937  75.8278 284.3940 14.86895916493485
DUMMY MASS 2            
1 24926U 97048B   25088.21611081  .00001062  00000+0  11642-3 0  9999
2 24926  86.3412 173.8748 0009826  84.0927 276.1418 14.86648774493260
IRIDIUM 29              
1 24944U 97051A   25088.23754017  .00000976  00000+0  32705-3 0  9998
2 24944  86.4029 177.4043 0002241 100.5463 259.5987 14.36376823442017
IRIDIUM 33              
1 24946U 97051C   25088.20203306  .00000691  00000+0  23674-3 0  9996
2 24946  86.3946 176.6735 0007171 355.8082   4.3053 14.34831094441286
IRIDIUM 28              
1 24948U 97051E   25088.33229881  .00000953  00000+0  31315-3 0  9990
2 24948  86.4034 174.9291 0002124  83.4202 276.7238 14.37307021442446
IRIDIUM 36              
1 24967U 97056C   25087.40285790  .00001310  00000+0  43117-3 0  9995
2 24967  86.4021 206.8910 0001872  93.1566 266.9846 14.37512547440610
